EUTELSAT 8 WEST B       
1 40875U 15039B   25246.23621008 -.00000065  00000+0  00000+0 0  9993
2 40875   0.0670 342.6046 0003665 181.6896 255.3548  1.00271609 36774
EUTELSAT 9B             
1 41310U 16005A   25246.23959009  .00000063  00000+0  00000+0 0  9994
2 41310   0.0250  60.0158 0002110 133.3019 244.5726  1.00274847 35238
EUTELSAT 65 WEST A      
1 41382U 16014A   25246.22485669 -.00000276  00000+0  00000+0 0  9995
2 41382   0.0575  17.1906 0002321 140.3737 200.8161  1.00271605 34652
EUTELSAT 117 WEST B     
1 41589U 16038B   25246.21462998 -.00000011  00000+0  00000+0 0  9996
2 41589   0.0289  13.5684 0000532 237.2960  52.0002  1.00271755 33782
EUTELSAT 172B           
1 42741U 17029B   25245.34399213 -.00000004  00000+0  00000+0 0  9992
2 42741   0.0172 169.5413 0000428 283.2574 184.7965  1.00270932 30843
EUTELSAT 7C             
1 44334U 19034B   25246.23915676  .00000048  00000+0  00000+0 0  9993
2 44334   0.0724 186.4404 0003305 319.2125 290.0576  1.00271116  3959
EUTELSAT 5 WEST B       
1 44624U 19067A   25246.23681675 -.00000042  00000+0  00000+0 0  9995
2 44624   0.1024 306.4417 0003199 215.9673 260.4547  1.00272728 21560
EUTELSAT KONNECT        
1 45027U 20005B   25246.23924343  .00000049  00000+0  00000+0 0  9995
2 45027   0.0641 100.2955 0001482  67.7168 267.9320  1.00269207 21440
